ONEWEB-0520             
1 54138U 22138AB  26167.29586357  .00000014  00000+0  18577-5 0  9991
2 54138  87.9178 305.1434 0001596 101.9246 258.2066 13.19725043176702
ONEWEB-0521             
1 54139U 22138AC  26167.10157797  .00000079  00000+0  16614-3 0  9993
2 54139  87.9176 305.1706 0001966  92.3415 267.7943 13.19725275176622
ONEWEB-0522             
1 54140U 22138AD  26167.30849764  .00000045  00000+0  81219-4 0  9996
2 54140  87.9180 305.1318 0001698  98.3080 261.8246 13.19725131176693
ONEWEB-0523             
1 54141U 22138AE  26167.27175376  .00000054  00000+0  10065-3 0  9994
2 54141  87.9197 274.6228 0002768  98.7087 261.4360 13.20771041179185
ONEWEB-0524             
1 54142U 22138AF  26167.03438649  .00000039  00000+0  64953-4 0  9993
2 54142  87.9195 274.6671 0002588 116.8355 243.3043 13.20770662179158
ONEWEB-0525             
1 54143U 22138AG  26167.09999456 -.00000014  00000+0 -66334-4 0  9998
2 54143  87.9175 305.1810 0001554 106.7197 253.4106 13.19725498176688
ONEWEB-0526             
1 54144U 22138AH  26167.28479916 -.00000018  00000+0 -77842-4 0  9994
2 54144  87.9177 305.1448 0001780 102.5698 257.5634 13.19725608176683
ONEWEB-0529             
1 54145U 22138AJ  26167.28795864  .00000019  00000+0  14353-4 0  9995
2 54145  87.9169 305.1533 0001634 102.4607 257.6709 13.19724716176703
ONEWEB-0531             
1 54146U 22138AK  26167.32395324  .00000089  00000+0  18694-3 0  9996
2 54146  87.9193 274.6072 0002834 104.2573 255.8876 13.20772041179191
ONEWEB-0535             
1 54147U 22138AL  26167.32112599  .00000069  00000+0  14100-3 0  9994
2 54147  87.9178 305.1306 0002178  95.5287 264.6094 13.19725610176724
ONEWEB-0536             
1 54148U 22138AM  26167.31047573  .00000105  00000+0  22742-3 0  9995
2 54148  87.9182 274.6321 0002951 107.8000 252.3455 13.20771406179180
ONEWEB-0527             
1 54642U 22166A   26167.26826640  .00000001  00000+0 -28634-4 0  9992
2 54642  87.9253 244.1802 0001964 100.0054 260.1301 13.21823061171412
ONEWEB-0528             
1 54643U 22166B   26167.26910840  .00000032  00000+0  45566-4 0  9995
2 54643  87.9256 244.1824 0001853 103.4495 256.6846 13.21824510171428
ONEWEB-0539             
1 54644U 22166C   26167.23127822  .00000081  00000+0  16559-3 0  9996
2 54644  87.9259 244.1613 0001961  92.7691 267.3667 13.21827037171412
ONEWEB-0540             
1 54645U 22166D   26167.23814031  .00000166  00000+0  37031-3 0  9994
2 54645  87.9254 244.1904 0002041  95.5623 264.5744 13.21827323171409
ONEWEB-0542             
1 54646U 22166E   26167.24136098  .00000117  00000+0  25166-3 0  9998
2 54646  87.9263 244.1580 0002006  90.5833 269.5531 13.21827955171410
