[{"OBJECT_NAME":"ONEWEB-0520","OBJECT_ID":"2022-138AB","EPOCH":"2026-06-16T07:06:02.612448","MEAN_MOTION":13.19725043,"ECCENTRICITY":0.0001596,"INCLINATION":87.9178,"RA_OF_ASC_NODE":305.1434,"ARG_OF_PERICENTER":101.9246,"MEAN_ANOMALY":258.2066,"EPHEMERIS_TYPE":0,"CLASSIFICATION_TYPE":"U","NORAD_CAT_ID":54138,"ELEMENT_SET_NO":999,"REV_AT_EPOCH":17670,"BSTAR":1.8577e-06,"MEAN_MOTION_DOT":1.4e-07,"MEAN_MOTION_DDOT":0.0},{"OBJECT_NAME":"ONEWEB-0521","OBJECT_ID":"2022-138AC","EPOCH":"2026-06-16T02:26:16.336608","MEAN_MOTION":13.19725275,"ECCENTRICITY":0.0001966,"INCLINATION":87.9176,"RA_OF_ASC_NODE":305.1706,"ARG_OF_PERICENTER":92.3415,"MEAN_ANOMALY":267.7943,"EPHEMERIS_TYPE":0,"CLASSIFICATION_TYPE":"U","NORAD_CAT_ID":54139,"ELEMENT_SET_NO":999,"REV_AT_EPOCH":17662,"BSTAR":0.00016614,"MEAN_MOTION_DOT":7.9e-07,"MEAN_MOTION_DDOT":0.0},{"OBJECT_NAME":"ONEWEB-0522","OBJECT_ID":"2022-138AD","EPOCH":"2026-06-16T07:24:14.196096","MEAN_MOTION":13.19725131,"ECCENTRICITY":0.0001698,"INCLINATION":87.918,"RA_OF_ASC_NODE":305.1318,"ARG_OF_PERICENTER":98.308,"MEAN_ANOMALY":261.8246,"EPHEMERIS_TYPE":0,"CLASSIFICATION_TYPE":"U","NORAD_CAT_ID":54140,"ELEMENT_SET_NO":999,"REV_AT_EPOCH":17669,"BSTAR":8.1219e-05,"MEAN_MOTION_DOT":4.5e-07,"MEAN_MOTION_DDOT":0.0},{"OBJECT_NAME":"ONEWEB-0523","OBJECT_ID":"2022-138AE","EPOCH":"2026-06-16T06:31:19.524864","MEAN_MOTION":13.20771041,"ECCENTRICITY":0.0002768,"INCLINATION":87.9197,"RA_OF_ASC_NODE":274.6228,"ARG_OF_PERICENTER":98.7087,"MEAN_ANOMALY":261.436,"EPHEMERIS_TYPE":0,"CLASSIFICATION_TYPE":"U","NORAD_CAT_ID":54141,"ELEMENT_SET_NO":999,"REV_AT_EPOCH":17918,"BSTAR":0.00010065000000000001,"MEAN_MOTION_DOT":5.4e-07,"MEAN_MOTION_DDOT":0.0},{"OBJECT_NAME":"ONEWEB-0524","OBJECT_ID":"2022-138AF","EPOCH":"2026-06-16T00:49:30.992736","MEAN_MOTION":13.20770662,"ECCENTRICITY":0.0002588,"INCLINATION":87.9195,"RA_OF_ASC_NODE":274.6671,"ARG_OF_PERICENTER":116.8355,"MEAN_ANOMALY":243.3043,"EPHEMERIS_TYPE":0,"CLASSIFICATION_TYPE":"U","NORAD_CAT_ID":54142,"ELEMENT_SET_NO":999,"REV_AT_EPOCH":17915,"BSTAR":6.495300000000001e-05,"MEAN_MOTION_DOT":3.9e-07,"MEAN_MOTION_DDOT":0.0},{"OBJECT_NAME":"ONEWEB-0525","OBJECT_ID":"2022-138AG","EPOCH":"2026-06-16T02:23:59.529984","MEAN_MOTION":13.19725498,"ECCENTRICITY":0.0001554,"INCLINATION":87.9175,"RA_OF_ASC_NODE":305.181,"ARG_OF_PERICENTER":106.7197,"MEAN_ANOMALY":253.4106,"EPHEMERIS_TYPE":0,"CLASSIFICATION_TYPE":"U","NORAD_CAT_ID":54143,"ELEMENT_SET_NO":999,"REV_AT_EPOCH":17668,"BSTAR":-6.6334e-05,"MEAN_MOTION_DOT":-1.4e-07,"MEAN_MOTION_DDOT":0.0},{"OBJECT_NAME":"ONEWEB-0526","OBJECT_ID":"2022-138AH","EPOCH":"2026-06-16T06:50:06.647424","MEAN_MOTION":13.19725608,"ECCENTRICITY":0.000178,"INCLINATION":87.9177,"RA_OF_ASC_NODE":305.1448,"ARG_OF_PERICENTER":102.5698,"MEAN_ANOMALY":257.5634,"EPHEMERIS_TYPE":0,"CLASSIFICATION_TYPE":"U","NORAD_CAT_ID":54144,"ELEMENT_SET_NO":999,"REV_AT_EPOCH":17668,"BSTAR":-7.7842e-05,"MEAN_MOTION_DOT":-1.8e-07,"MEAN_MOTION_DDOT":0.0},{"OBJECT_NAME":"ONEWEB-0529","OBJECT_ID":"2022-138AJ","EPOCH":"2026-06-16T06:54:39.626496","MEAN_MOTION":13.19724716,"ECCENTRICITY":0.0001634,"INCLINATION":87.9169,"RA_OF_ASC_NODE":305.1533,"ARG_OF_PERICENTER":102.4607,"MEAN_ANOMALY":257.6709,"EPHEMERIS_TYPE":0,"CLASSIFICATION_TYPE":"U","NORAD_CAT_ID":54145,"ELEMENT_SET_NO":999,"REV_AT_EPOCH":17670,"BSTAR":1.4353e-05,"MEAN_MOTION_DOT":1.9e-07,"MEAN_MOTION_DDOT":0.0},{"OBJECT_NAME":"ONEWEB-0531","OBJECT_ID":"2022-138AK","EPOCH":"2026-06-16T07:46:29.559936","MEAN_MOTION":13.20772041,"ECCENTRICITY":0.0002834,"INCLINATION":87.9193,"RA_OF_ASC_NODE":274.6072,"ARG_OF_PERICENTER":104.2573,"MEAN_ANOMALY":255.8876,"EPHEMERIS_TYPE":0,"CLASSIFICATION_TYPE":"U","NORAD_CAT_ID":54146,"ELEMENT_SET_NO":999,"REV_AT_EPOCH":17919,"BSTAR":0.00018694,"MEAN_MOTION_DOT":8.9e-07,"MEAN_MOTION_DDOT":0.0},{"OBJECT_NAME":"ONEWEB-0535","OBJECT_ID":"2022-138AL","EPOCH":"2026-06-16T07:42:25.285536","MEAN_MOTION":13.1972561,"ECCENTRICITY":0.0002178,"INCLINATION":87.9178,"RA_OF_ASC_NODE":305.1306,"ARG_OF_PERICENTER":95.5287,"MEAN_ANOMALY":264.6094,"EPHEMERIS_TYPE":0,"CLASSIFICATION_TYPE":"U","NORAD_CAT_ID":54147,"ELEMENT_SET_NO":999,"REV_AT_EPOCH":17672,"BSTAR":0.00014099999999999998,"MEAN_MOTION_DOT":6.9e-07,"MEAN_MOTION_DDOT":0.0},{"OBJECT_NAME":"ONEWEB-0536","OBJECT_ID":"2022-138AM","EPOCH":"2026-06-16T07:27:05.103072","MEAN_MOTION":13.20771406,"ECCENTRICITY":0.0002951,"INCLINATION":87.9182,"RA_OF_ASC_NODE":274.6321,"ARG_OF_PERICENTER":107.8,"MEAN_ANOMALY":252.3455,"EPHEMERIS_TYPE":0,"CLASSIFICATION_TYPE":"U","NORAD_CAT_ID":54148,"ELEMENT_SET_NO":999,"REV_AT_EPOCH":17918,"BSTAR":0.00022742000000000001,"MEAN_MOTION_DOT":1.05e-06,"MEAN_MOTION_DDOT":0.0},{"OBJECT_NAME":"ONEWEB-0527","OBJECT_ID":"2022-166A","EPOCH":"2026-06-16T06:26:18.216960","MEAN_MOTION":13.21823061,"ECCENTRICITY":0.0001964,"INCLINATION":87.9253,"RA_OF_ASC_NODE":244.1802,"ARG_OF_PERICENTER":100.0054,"MEAN_ANOMALY":260.1301,"EPHEMERIS_TYPE":0,"CLASSIFICATION_TYPE":"U","NORAD_CAT_ID":54642,"ELEMENT_SET_NO":999,"REV_AT_EPOCH":17141,"BSTAR":-2.8634e-05,"MEAN_MOTION_DOT":1e-08,"MEAN_MOTION_DDOT":0.0},{"OBJECT_NAME":"ONEWEB-0528","OBJECT_ID":"2022-166B","EPOCH":"2026-06-16T06:27:30.965760","MEAN_MOTION":13.2182451,"ECCENTRICITY":0.0001853,"INCLINATION":87.9256,"RA_OF_ASC_NODE":244.1824,"ARG_OF_PERICENTER":103.4495,"MEAN_ANOMALY":256.6846,"EPHEMERIS_TYPE":0,"CLASSIFICATION_TYPE":"U","NORAD_CAT_ID":54643,"ELEMENT_SET_NO":999,"REV_AT_EPOCH":17142,"BSTAR":4.5566000000000004e-05,"MEAN_MOTION_DOT":3.2e-07,"MEAN_MOTION_DDOT":0.0},{"OBJECT_NAME":"ONEWEB-0539","OBJECT_ID":"2022-166C","EPOCH":"2026-06-16T05:33:02.438208","MEAN_MOTION":13.21827037,"ECCENTRICITY":0.0001961,"INCLINATION":87.9259,"RA_OF_ASC_NODE":244.1613,"ARG_OF_PERICENTER":92.7691,"MEAN_ANOMALY":267.3667,"EPHEMERIS_TYPE":0,"CLASSIFICATION_TYPE":"U","NORAD_CAT_ID":54644,"ELEMENT_SET_NO":999,"REV_AT_EPOCH":17141,"BSTAR":0.00016559,"MEAN_MOTION_DOT":8.1e-07,"MEAN_MOTION_DDOT":0.0},{"OBJECT_NAME":"ONEWEB-0540","OBJECT_ID":"2022-166D","EPOCH":"2026-06-16T05:42:55.322784","MEAN_MOTION":13.21827323,"ECCENTRICITY":0.0002041,"INCLINATION":87.9254,"RA_OF_ASC_NODE":244.1904,"ARG_OF_PERICENTER":95.5623,"MEAN_ANOMALY":264.5744,"EPHEMERIS_TYPE":0,"CLASSIFICATION_TYPE":"U","NORAD_CAT_ID":54645,"ELEMENT_SET_NO":999,"REV_AT_EPOCH":17140,"BSTAR":0.00037031,"MEAN_MOTION_DOT":1.66e-06,"MEAN_MOTION_DDOT":0.0},{"OBJECT_NAME":"ONEWEB-0542","OBJECT_ID":"2022-166E","EPOCH":"2026-06-16T05:47:33.588672","MEAN_MOTION":13.21827955,"ECCENTRICITY":0.0002006,"INCLINATION":87.9263,"RA_OF_ASC_NODE":244.158,"ARG_OF_PERICENTER":90.5833,"MEAN_ANOMALY":269.5531,"EPHEMERIS_TYPE":0,"CLASSIFICATION_TYPE":"U","NORAD_CAT_ID":54646,"ELEMENT_SET_NO":999,"REV_AT_EPOCH":17141,"BSTAR":0.00025166,"MEAN_MOTION_DOT":1.17e-06,"MEAN_MOTION_DDOT":0.0}]